STARLINK-36544          
1 67517U 26012AA  26041.16668981 -.01869405  00000+0 -29362-1 0  9992
2 67517  42.9996 110.6701 0001224 266.1986  65.3704 15.56202944  4647
STARLINK-36412          
1 67518U 26012AB  26041.16668981 -.01860795  00000+0 -30080-1 0  9995
2 67518  43.0001 110.6536 0001376 266.0076  71.7739 15.55416545  4585
STARLINK-36415          
1 67519U 26012AC  26041.16668981 -.01874794  00000+0 -30102-1 0  9995
2 67519  42.9995 110.6251 0001283 266.3427  82.4083 15.55624295  4809
STARLINK-36547          
1 67520U 26012AD  26041.16668981 -.01865392  00000+0 -30363-1 0  9990
2 67520  42.9996 110.6751 0001400 272.1688  56.8560 15.55239614  4589
STARLINK-36444          
1 67521U 26012AE  26041.16668981 -.01795143  00000+0 -30979-1 0  9990
2 67521  43.0001 110.7892 0000853 268.3097  15.3890 15.53531742  4589
HULIANWANG DIGUI-146    
1 67522U 26013A   26039.66906079 -.00000016  00000+0  11721-3 0  9999
2 67522  50.0077 103.7562 0001969   8.0103 352.0823 13.82461331  2843
HULIANWANG DIGUI-147    
1 67523U 26013B   26039.59518140 -.00000021  00000+0  11167-3 0  9990
2 67523  50.0037 103.9536 0000975 276.3245  83.7539 13.82635589  2835
HULIANWANG DIGUI-148    
1 67524U 26013C   26039.66380743  .00000004  00000+0  13380-3 0  9994
2 67524  49.9933 103.7491 0001026 346.5569  13.5299 13.82980871  2845
HULIANWANG DIGUI-149    
1 67525U 26013D   26040.38380504 -.00000017  00000+0  11611-3 0  9991
2 67525  50.0095 100.8660 0001973 326.7374  33.3397 13.82648077  2948
HULIANWANG DIGUI-150    
1 67526U 26013E   26040.52212929 -.00000014  00000+0  11850-3 0  9995
2 67526  50.0085 100.2082 0003172 190.5978 169.4850 13.82369291  2987
HULIANWANG DIGUI-151    
1 67527U 26013F   26040.44844859  .00000016  00000+0  14200-3 0  9993
2 67527  50.0014 100.5416 0002672 207.3402 152.7353 13.84664897  2959
HULIANWANG DIGUI-152    
1 67528U 26013G   26039.36470613  .00000016  00000+0  14214-3 0  9991
2 67528  50.0066 104.7990 0000984  46.0388 314.0590 13.84453091  2807
