CCSDS_OMM_VERS = 2.0
CREATION_DATE  = 
ORIGINATOR     = 

OBJECT_NAME    = STARLINK-36544
OBJECT_ID      = 2026-012AA
CENTER_NAME    = EARTH
REF_FRAME      = TEME
TIME_SYSTEM    = UTC
MEAN_ELEMENT_THEORY = SGP/SGP4

EPOCH          = 2026-02-10T04:00:01.999584
MEAN_MOTION    = 15.56202944
ECCENTRICITY   = .0001224
INCLINATION    = 42.9996
RA_OF_ASC_NODE = 110.6701
ARG_OF_PERICENTER = 266.1986
MEAN_ANOMALY   = 65.3704

EPHEMERIS_TYPE = 0
CLASSIFICATION_TYPE = U
NORAD_CAT_ID   = 67517
ELEMENT_SET_NO = 999
REV_AT_EPOCH   = 464
BSTAR          = -.29362E-1
MEAN_MOTION_DOT = -.1869405E-1
MEAN_MOTION_DDOT = 0

CCSDS_OMM_VERS = 2.0
CREATION_DATE  = 
ORIGINATOR     = 

OBJECT_NAME    = STARLINK-36412
OBJECT_ID      = 2026-012AB
CENTER_NAME    = EARTH
REF_FRAME      = TEME
TIME_SYSTEM    = UTC
MEAN_ELEMENT_THEORY = SGP/SGP4

EPOCH          = 2026-02-10T04:00:01.999584
MEAN_MOTION    = 15.55416545
ECCENTRICITY   = .0001376
INCLINATION    = 43.0001
RA_OF_ASC_NODE = 110.6536
ARG_OF_PERICENTER = 266.0076
MEAN_ANOMALY   = 71.7739

EPHEMERIS_TYPE = 0
CLASSIFICATION_TYPE = U
NORAD_CAT_ID   = 67518
ELEMENT_SET_NO = 999
REV_AT_EPOCH   = 458
BSTAR          = -.3008E-1
MEAN_MOTION_DOT = -.1860795E-1
MEAN_MOTION_DDOT = 0

CCSDS_OMM_VERS = 2.0
CREATION_DATE  = 
ORIGINATOR     = 

OBJECT_NAME    = STARLINK-36415
OBJECT_ID      = 2026-012AC
CENTER_NAME    = EARTH
REF_FRAME      = TEME
TIME_SYSTEM    = UTC
MEAN_ELEMENT_THEORY = SGP/SGP4

EPOCH          = 2026-02-10T04:00:01.999584
MEAN_MOTION    = 15.55624295
ECCENTRICITY   = .0001283
INCLINATION    = 42.9995
RA_OF_ASC_NODE = 110.6251
ARG_OF_PERICENTER = 266.3427
MEAN_ANOMALY   = 82.4083

EPHEMERIS_TYPE = 0
CLASSIFICATION_TYPE = U
NORAD_CAT_ID   = 67519
ELEMENT_SET_NO = 999
REV_AT_EPOCH   = 480
BSTAR          = -.30102E-1
MEAN_MOTION_DOT = -.1874794E-1
MEAN_MOTION_DDOT = 0

CCSDS_OMM_VERS = 2.0
CREATION_DATE  = 
ORIGINATOR     = 

OBJECT_NAME    = STARLINK-36547
OBJECT_ID      = 2026-012AD
CENTER_NAME    = EARTH
REF_FRAME      = TEME
TIME_SYSTEM    = UTC
MEAN_ELEMENT_THEORY = SGP/SGP4

EPOCH          = 2026-02-10T04:00:01.999584
MEAN_MOTION    = 15.55239614
ECCENTRICITY   = .00014
INCLINATION    = 42.9996
RA_OF_ASC_NODE = 110.6751
ARG_OF_PERICENTER = 272.1688
MEAN_ANOMALY   = 56.8560

EPHEMERIS_TYPE = 0
CLASSIFICATION_TYPE = U
NORAD_CAT_ID   = 67520
ELEMENT_SET_NO = 999
REV_AT_EPOCH   = 458
BSTAR          = -.30363E-1
MEAN_MOTION_DOT = -.1865392E-1
MEAN_MOTION_DDOT = 0

CCSDS_OMM_VERS = 2.0
CREATION_DATE  = 
ORIGINATOR     = 

OBJECT_NAME    = STARLINK-36444
OBJECT_ID      = 2026-012AE
CENTER_NAME    = EARTH
REF_FRAME      = TEME
TIME_SYSTEM    = UTC
MEAN_ELEMENT_THEORY = SGP/SGP4

EPOCH          = 2026-02-10T04:00:01.999584
MEAN_MOTION    = 15.53531742
ECCENTRICITY   = .0000853
INCLINATION    = 43.0001
RA_OF_ASC_NODE = 110.7892
ARG_OF_PERICENTER = 268.3097
MEAN_ANOMALY   = 15.3890

EPHEMERIS_TYPE = 0
CLASSIFICATION_TYPE = U
NORAD_CAT_ID   = 67521
ELEMENT_SET_NO = 999
REV_AT_EPOCH   = 458
BSTAR          = -.30979E-1
MEAN_MOTION_DOT = -.1795143E-1
MEAN_MOTION_DDOT = 0

CCSDS_OMM_VERS = 2.0
CREATION_DATE  = 
ORIGINATOR     = 

OBJECT_NAME    = HULIANWANG DIGUI-146
OBJECT_ID      = 2026-013A
CENTER_NAME    = EARTH
REF_FRAME      = TEME
TIME_SYSTEM    = UTC
MEAN_ELEMENT_THEORY = SGP/SGP4

EPOCH          = 2026-02-08T16:03:26.852256
MEAN_MOTION    = 13.82461331
ECCENTRICITY   = .0001969
INCLINATION    = 50.0077
RA_OF_ASC_NODE = 103.7562
ARG_OF_PERICENTER = 8.0103
MEAN_ANOMALY   = 352.0823

EPHEMERIS_TYPE = 0
CLASSIFICATION_TYPE = U
NORAD_CAT_ID   = 67522
ELEMENT_SET_NO = 999
REV_AT_EPOCH   = 284
BSTAR          = .11721E-3
MEAN_MOTION_DOT = -.16E-6
MEAN_MOTION_DDOT = 0

CCSDS_OMM_VERS = 2.0
CREATION_DATE  = 
ORIGINATOR     = 

OBJECT_NAME    = HULIANWANG DIGUI-147
OBJECT_ID      = 2026-013B
CENTER_NAME    = EARTH
REF_FRAME      = TEME
TIME_SYSTEM    = UTC
MEAN_ELEMENT_THEORY = SGP/SGP4

EPOCH          = 2026-02-08T14:17:03.672960
MEAN_MOTION    = 13.82635589
ECCENTRICITY   = .00009754
INCLINATION    = 50.0037
RA_OF_ASC_NODE = 103.9536
ARG_OF_PERICENTER = 276.3245
MEAN_ANOMALY   = 83.7539

EPHEMERIS_TYPE = 0
CLASSIFICATION_TYPE = U
NORAD_CAT_ID   = 67523
ELEMENT_SET_NO = 999
REV_AT_EPOCH   = 283
BSTAR          = .11167312E-3
MEAN_MOTION_DOT = -.21E-6
MEAN_MOTION_DDOT = 0

CCSDS_OMM_VERS = 2.0
CREATION_DATE  = 
ORIGINATOR     = 

OBJECT_NAME    = HULIANWANG DIGUI-148
OBJECT_ID      = 2026-013C
CENTER_NAME    = EARTH
REF_FRAME      = TEME
TIME_SYSTEM    = UTC
MEAN_ELEMENT_THEORY = SGP/SGP4

EPOCH          = 2026-02-08T15:55:52.961952
MEAN_MOTION    = 13.82980871
ECCENTRICITY   = .00010264
INCLINATION    = 49.9933
RA_OF_ASC_NODE = 103.7491
ARG_OF_PERICENTER = 346.5569
MEAN_ANOMALY   = 13.5299

EPHEMERIS_TYPE = 0
CLASSIFICATION_TYPE = U
NORAD_CAT_ID   = 67524
ELEMENT_SET_NO = 999
REV_AT_EPOCH   = 284
BSTAR          = .13380469E-3
MEAN_MOTION_DOT = .4E-7
MEAN_MOTION_DDOT = 0

CCSDS_OMM_VERS = 2.0
CREATION_DATE  = 
ORIGINATOR     = 

OBJECT_NAME    = HULIANWANG DIGUI-149
OBJECT_ID      = 2026-013D
CENTER_NAME    = EARTH
REF_FRAME      = TEME
TIME_SYSTEM    = UTC
MEAN_ELEMENT_THEORY = SGP/SGP4

EPOCH          = 2026-02-09T09:12:40.755456
MEAN_MOTION    = 13.82648077
ECCENTRICITY   = .0001973
INCLINATION    = 50.0095
RA_OF_ASC_NODE = 100.8660
ARG_OF_PERICENTER = 326.7374
MEAN_ANOMALY   = 33.3397

EPHEMERIS_TYPE = 0
CLASSIFICATION_TYPE = U
NORAD_CAT_ID   = 67525
ELEMENT_SET_NO = 999
REV_AT_EPOCH   = 294
BSTAR          = .11611E-3
MEAN_MOTION_DOT = -.17E-6
MEAN_MOTION_DDOT = 0

CCSDS_OMM_VERS = 2.0
CREATION_DATE  = 
ORIGINATOR     = 

OBJECT_NAME    = HULIANWANG DIGUI-150
OBJECT_ID      = 2026-013E
CENTER_NAME    = EARTH
REF_FRAME      = TEME
TIME_SYSTEM    = UTC
MEAN_ELEMENT_THEORY = SGP/SGP4

EPOCH          = 2026-02-09T12:31:51.970656
MEAN_MOTION    = 13.82369291
ECCENTRICITY   = .00031725
INCLINATION    = 50.0085
RA_OF_ASC_NODE = 100.2082
ARG_OF_PERICENTER = 190.5978
MEAN_ANOMALY   = 169.4850

EPHEMERIS_TYPE = 0
CLASSIFICATION_TYPE = U
NORAD_CAT_ID   = 67526
ELEMENT_SET_NO = 999
REV_AT_EPOCH   = 298
BSTAR          = .11849837E-3
MEAN_MOTION_DOT = -.14E-6
MEAN_MOTION_DDOT = 0

CCSDS_OMM_VERS = 2.0
CREATION_DATE  = 
ORIGINATOR     = 

OBJECT_NAME    = HULIANWANG DIGUI-151
OBJECT_ID      = 2026-013F
CENTER_NAME    = EARTH
REF_FRAME      = TEME
TIME_SYSTEM    = UTC
MEAN_ELEMENT_THEORY = SGP/SGP4

EPOCH          = 2026-02-09T10:45:45.958176
MEAN_MOTION    = 13.84664897
ECCENTRICITY   = .0002672
INCLINATION    = 50.0014
RA_OF_ASC_NODE = 100.5416
ARG_OF_PERICENTER = 207.3402
MEAN_ANOMALY   = 152.7353

EPHEMERIS_TYPE = 0
CLASSIFICATION_TYPE = U
NORAD_CAT_ID   = 67527
ELEMENT_SET_NO = 999
REV_AT_EPOCH   = 295
BSTAR          = .1420007E-3
MEAN_MOTION_DOT = .16E-6
MEAN_MOTION_DDOT = 0

CCSDS_OMM_VERS = 2.0
CREATION_DATE  = 
ORIGINATOR     = 

OBJECT_NAME    = HULIANWANG DIGUI-152
OBJECT_ID      = 2026-013G
CENTER_NAME    = EARTH
REF_FRAME      = TEME
TIME_SYSTEM    = UTC
MEAN_ELEMENT_THEORY = SGP/SGP4

EPOCH          = 2026-02-08T08:45:10.609632
MEAN_MOTION    = 13.84453091
ECCENTRICITY   = .00009844
INCLINATION    = 50.0066
RA_OF_ASC_NODE = 104.7990
ARG_OF_PERICENTER = 46.0388
MEAN_ANOMALY   = 314.0590

EPHEMERIS_TYPE = 0
CLASSIFICATION_TYPE = U
NORAD_CAT_ID   = 67528
ELEMENT_SET_NO = 999
REV_AT_EPOCH   = 280
BSTAR          = .14213913E-3
MEAN_MOTION_DOT = .16E-6
MEAN_MOTION_DDOT = 0

